{
  "norad_id": 51786,
  "name": "STARLINK-3638",
  "history": [
    {
      "epoch": "2026-03-28T17:36:47.130912Z",
      "apogee_km": 540.5389685511782,
      "perigee_km": 538.9892203479994,
      "latitude_deg": -3.269140419400671e-05,
      "longitude_deg": 173.282217048898,
      "height_km": 540.6360945386893,
      "semi_major_axis_km": 6917.9010944495885,
      "eccentricity": 0.00011201,
      "inclination_deg": 53.2167,
      "raan_deg": 263.6287,
      "arg_perigee_deg": 88.2278,
      "mean_anomaly_deg": 271.8842,
      "mean_motion_rev_day": 15.08833226
    }
  ]
}